HELIOS 2A               
1 28492U 04049A   22314.12913845  .00003240  00000+0  31280-3 0  9992
2 28492  98.2499 264.0830 0013433 328.5244  31.5171 14.93568157956864
CFESAT                  
1 30777U 07006F   22314.26542639  .02249636  63813-2  15279-2 0  9997
2 30777  35.4085  38.0765 0006413  52.2193 307.7894 16.17145169872024
SPIRALE A               
1 33751U 09008C   22313.67170419  .00000213  00000+0  80877-3 0  9990
2 33751   2.0287 115.7099 5454607 161.9283 229.9228  4.58884714201481
SPIRALE B               
1 33752U 09008D   22313.48212498  .00003123  00000+0  11586-2 0  9997
2 33752   2.2235  38.6789 6841503 306.0485   8.4712  2.83375859129183
SAPPHIRE                
1 39088U 13009C   22313.79564216  .00000178  00000+0  78315-4 0  9995
2 39088  98.4190 145.8916 0010921 199.4235 160.6536 14.34341063507953
